start=new Date('2022-06-01T00:00:00.000Z').valueOf();
sats=[{"MEAN_MOTION_DOT":"0.00001601","TIME_SYSTEM":"UTC","COUNTRY_CODE":"US","TLE_LINE1":"1 48278U 21036C   22151.81975683  .00001601  00000-0  12639-3 0  9991","LAUNCH_DATE":"2021-04-29","GP_ID":"205033359","CLASSIFICATION_TYPE":"U","OBJECT_ID":"2021-036C","EPHEMERIS_TYPE":"0","OBJECT_TYPE":"PAYLOAD","OBJECT_NAME":"STARLINK-2543","MEAN_ELEMENT_THEORY":"SGP4","DECAY_DATE":null,"MEAN_MOTION":"15.06394778","MEAN_ANOMALY":"316.9254","REV_AT_EPOCH":"6198","REF_FRAME":"TEME","INCLINATION":"53.0545","ELEMENT_SET_NO":"999","CENTER_NAME":"EARTH","SEMIMAJOR_AXIS":"6925.365","MEAN_MOTION_DDOT":"0.0000000000000","TLE_LINE2":"2 48278  53.0545  92.1892 0002028  43.1893 316.9254 15.06394778 61988","ARG_OF_PERICENTER":"43.1893","APOAPSIS":"548.634","RA_OF_ASC_NODE":"92.1892","PERIAPSIS":"545.825","FILE":"3474214","BSTAR":"0.00012639000000","ECCENTRICITY":"0.00020280","NORAD_CAT_ID":"48278","SITE":"AFETR","RCS_SIZE":"LARGE","EPOCH":"2022-05-31T19:40:26.990112","PERIOD":"95.592"},{"MEAN_MOTION_DOT":"-0.00009054","COUNTRY_CODE":"US","TIME_SYSTEM":"UTC","TLE_LINE1":"1 48279U 21036D   22151.91667824 -.00009054  00000-0 -58956-3 0  9992","LAUNCH_DATE":"2021-04-29","GP_ID":"205036717","CLASSIFICATION_TYPE":"U","OBJECT_ID":"2021-036D","EPHEMERIS_TYPE":"0","OBJECT_TYPE":"PAYLOAD","OBJECT_NAME":"STARLINK-2580","MEAN_ELEMENT_THEORY":"SGP4","DECAY_DATE":null,"MEAN_MOTION":"15.06408562","REV_AT_EPOCH":"6200","MEAN_ANOMALY":"157.4574","REF_FRAME":"TEME","INCLINATION":"53.0546","ELEMENT_SET_NO":"999","CENTER_NAME":"EARTH","SEMIMAJOR_AXIS":"6925.322","MEAN_MOTION_DDOT":"0.0000000000000","ARG_OF_PERICENTER":"48.4786","TLE_LINE2":"2 48279  53.0546  91.6936 0001689  48.4786 157.4574 15.06408562 62008","APOAPSIS":"548.357","RA_OF_ASC_NODE":"91.6936","PERIAPSIS":"546.018","FILE":"3474371","BSTAR":"-0.00058956000000","ECCENTRICITY":"0.00016890","NORAD_CAT_ID":"48279","SITE":"AFETR","RCS_SIZE":"LARGE","EPOCH":"2022-05-31T22:00:00.999936","PERIOD":"95.592"},{"BSTAR":"-0.00000035124000","ECCENTRICITY":"0.00015160","PERIAPSIS":"546.171","FILE":"3473530","PERIOD":"95.592","RCS_SIZE":"LARGE","EPOCH":"2022-05-31T09:47:18.559680","NORAD_CAT_ID":"48280","SITE":"AFETR","ELEMENT_SET_NO":"999","CENTER_NAME":"EARTH","REF_FRAME":"TEME","INCLINATION":"53.0548","TLE_LINE2":"2 48280  53.0548 163.9613 0001516  60.8350 299.2791 15.06397676 60941","ARG_OF_PERICENTER":"60.8350","RA_OF_ASC_NODE":"163.9613","APOAPSIS":"548.271","SEMIMAJOR_AXIS":"6925.356","MEAN_MOTION_DDOT":"0.0000000000000","OBJECT_TYPE":"PAYLOAD","OBJECT_NAME":"STARLINK-2565","OBJECT_ID":"2021-036E","EPHEMERIS_TYPE":"0","REV_AT_EPOCH":"6094","MEAN_ANOMALY":"299.2791","DECAY_DATE":null,"MEAN_ELEMENT_THEORY":"SGP4","MEAN_MOTION":"15.06397676","MEAN_MOTION_DOT":"-0.00000287","COUNTRY_CODE":"US","TIME_SYSTEM":"UTC","GP_ID":"204993342","CLASSIFICATION_TYPE":"U","LAUNCH_DATE":"2021-04-29","TLE_LINE1":"1 48280U 21036E   22151.40785370 -.00000287  00000-0 -35124-6 0  9999"},{"BSTAR":"-0.00002503300000","ECCENTRICITY":"0.00019170","PERIAPSIS":"545.908","FILE":"3473531","EPOCH":"2022-05-31T08:30:20.864160","RCS_SIZE":"LARGE","PERIOD":"95.593","NORAD_CAT_ID":"48281","SITE":"AFETR","ELEMENT_SET_NO":"999","CENTER_NAME":"EARTH","REF_FRAME":"TEME","INCLINATION":"53.0537","ARG_OF_PERICENTER":"54.5065","TLE_LINE2":"2 48281  53.0537 144.2108 0001917  54.5065 305.6102 15.06392862 61210","RA_OF_ASC_NODE":"144.2108","APOAPSIS":"548.563","SEMIMAJOR_AXIS":"6925.370","MEAN_MOTION_DDOT":"0.0000000000000","OBJECT_NAME":"STARLINK-2520","OBJECT_TYPE":"PAYLOAD","OBJECT_ID":"2021-036F","EPHEMERIS_TYPE":"0","REV_AT_EPOCH":"6121","MEAN_ANOMALY":"305.6102","DECAY_DATE":null,"MEAN_ELEMENT_THEORY":"SGP4","MEAN_MOTION":"15.06392862","MEAN_MOTION_DOT":"-0.00000654","TIME_SYSTEM":"UTC","COUNTRY_CODE":"US","GP_ID":"204993684","CLASSIFICATION_TYPE":"U","TLE_LINE1":"1 48281U 21036F   22151.35440815 -.00000654  00000-0 -25033-4 0  9990","LAUNCH_DATE":"2021-04-29"},{"COUNTRY_CODE":"US","TIME_SYSTEM":"UTC","MEAN_MOTION_DOT":"-0.00000398","CLASSIFICATION_TYPE":"U","GP_ID":"205033060","LAUNCH_DATE":"2021-04-29","TLE_LINE1":"1 48282U 21036G   22151.70964584 -.00000398  00000-0 -78195-5 0  9997","OBJECT_NAME":"STARLINK-2558","OBJECT_TYPE":"PAYLOAD","EPHEMERIS_TYPE":"0","OBJECT_ID":"2021-036G","REV_AT_EPOCH":"6120","MEAN_ANOMALY":"305.2122","MEAN_MOTION":"15.06388284","DECAY_DATE":null,"MEAN_ELEMENT_THEORY":"SGP4","CENTER_NAME":"EARTH","ELEMENT_SET_NO":"999","INCLINATION":"53.0543","REF_FRAME":"TEME","RA_OF_ASC_NODE":"147.6187","APOAPSIS":"548.430","ARG_OF_PERICENTER":"54.9027","TLE_LINE2":"2 48282  53.0543 147.6187 0001705  54.9027 305.2122 15.06388284 61209","SEMIMAJOR_AXIS":"6925.384","MEAN_MOTION_DDOT":"0.0000000000000","ECCENTRICITY":"0.00017050","BSTAR":"-0.00000781950000","FILE":"3474197","PERIAPSIS":"546.069","PERIOD":"95.593","RCS_SIZE":"LARGE","EPOCH":"2022-05-31T17:01:53.400576","SITE":"AFETR","NORAD_CAT_ID":"48282"},{"MEAN_MOTION_DOT":"-0.00000948","TIME_SYSTEM":"UTC","COUNTRY_CODE":"US","LAUNCH_DATE":"2021-04-29","TLE_LINE1":"1 48283U 21036H   22151.70595461 -.00000948  00000-0 -44769-4 0  9992","GP_ID":"205033072","CLASSIFICATION_TYPE":"U","OBJECT_ID":"2021-036H","EPHEMERIS_TYPE":"0","OBJECT_NAME":"STARLINK-2516","OBJECT_TYPE":"PAYLOAD","DECAY_DATE":null,"MEAN_ELEMENT_THEORY":"SGP4","MEAN_MOTION":"15.06387062","REV_AT_EPOCH":"6120","MEAN_ANOMALY":"302.6981","REF_FRAME":"TEME","INCLINATION":"53.0545","ELEMENT_SET_NO":"999","CENTER_NAME":"EARTH","MEAN_MOTION_DDOT":"0.0000000000000","SEMIMAJOR_AXIS":"6925.388","ARG_OF_PERICENTER":"57.4203","TLE_LINE2":"2 48283  53.0545 147.6382 0002014  57.4203 302.6981 15.06387062 61204","RA_OF_ASC_NODE":"147.6382","APOAPSIS":"548.648","PERIAPSIS":"545.858","FILE":"3474197","BSTAR":"-0.00004476900000","ECCENTRICITY":"0.00020140","NORAD_CAT_ID":"48283","SITE":"AFETR","RCS_SIZE":"MEDIUM","PERIOD":"95.593","EPOCH":"2022-05-31T16:56:34.478304"},{"CLASSIFICATION_TYPE":"U","GP_ID":"204977333","TLE_LINE1":"1 48284U 21036J   22150.70707875  .00004660  00000-0  33153-3 0  9993","LAUNCH_DATE":"2021-04-29","COUNTRY_CODE":"US","TIME_SYSTEM":"UTC","MEAN_MOTION_DOT":"0.00004660","REV_AT_EPOCH":"6046","MEAN_ANOMALY":"303.6220","MEAN_MOTION":"15.06399355","MEAN_ELEMENT_THEORY":"SGP4","DECAY_DATE":null,"OBJECT_TYPE":"PAYLOAD","OBJECT_NAME":"STARLINK-2564","EPHEMERIS_TYPE":"0","OBJECT_ID":"2021-036J","APOAPSIS":"548.359","RA_OF_ASC_NODE":"152.1043","TLE_LINE2":"2 48284  53.0527 152.1043 0001651  56.4927 303.6220 15.06399355 60460","ARG_OF_PERICENTER":"56.4927","SEMIMAJOR_AXIS":"6925.351","MEAN_MOTION_DDOT":"0.0000000000000","CENTER_NAME":"EARTH","ELEMENT_SET_NO":"999","INCLINATION":"53.0527","REF_FRAME":"TEME","RCS_SIZE":"LARGE","PERIOD":"95.592","EPOCH":"2022-05-30T16:58:11.604000","SITE":"AFETR","NORAD_CAT_ID":"48284","ECCENTRICITY":"0.00016510","BSTAR":"0.00033153000000","FILE":"3472994","PERIAPSIS":"546.072"},{"PERIOD":"95.593","RCS_SIZE":"LARGE","EPOCH":"2022-05-31T16:45:57.991968","SITE":"AFETR","NORAD_CAT_ID":"48285","ECCENTRICITY":"0.00016770","BSTAR":"-0.00003615500000","FILE":"3474288","PERIAPSIS":"546.074","APOAPSIS":"548.397","RA_OF_ASC_NODE":"147.6695","ARG_OF_PERICENTER":"57.0139","TLE_LINE2":"2 48285  53.0552 147.6695 0001677  57.0139 303.1011 15.06392872 61192","SEMIMAJOR_AXIS":"6925.370","MEAN_MOTION_DDOT":"0.0000000000000","CENTER_NAME":"EARTH","ELEMENT_SET_NO":"999","INCLINATION":"53.0552","REF_FRAME":"TEME","REV_AT_EPOCH":"6119","MEAN_ANOMALY":"303.1011","MEAN_MOTION":"15.06392872","MEAN_ELEMENT_THEORY":"SGP4","DECAY_DATE":null,"OBJECT_TYPE":"PAYLOAD","OBJECT_NAME":"STARLINK-2548","EPHEMERIS_TYPE":"0","OBJECT_ID":"2021-036K","CLASSIFICATION_TYPE":"U","GP_ID":"205034959","TLE_LINE1":"1 48285U 21036K   22151.69858787 -.00000820  00000-0 -36155-4 0  9994","LAUNCH_DATE":"2021-04-29","COUNTRY_CODE":"US","TIME_SYSTEM":"UTC","MEAN_MOTION_DOT":"-0.00000820"},{"OBJECT_NAME":"STARLINK-2547","OBJECT_TYPE":"PAYLOAD","EPHEMERIS_TYPE":"0","OBJECT_ID":"2021-036L","REV_AT_EPOCH":"6119","MEAN_ANOMALY":"309.3162","MEAN_MOTION":"15.06390600","DECAY_DATE":null,"MEAN_ELEMENT_THEORY":"SGP4","TIME_SYSTEM":"UTC","COUNTRY_CODE":"US","MEAN_MOTION_DOT":"-0.00000450","CLASSIFICATION_TYPE":"U","GP_ID":"205033096","TLE_LINE1":"1 48286U 21036L   22151.69489316 -.00000450  00000-0 -11331-4 0  9991","LAUNCH_DATE":"2021-04-29","ECCENTRICITY":"0.00017160","BSTAR":"-0.00001133100000","FILE":"3474199","PERIAPSIS":"546.054","RCS_SIZE":"LARGE","EPOCH":"2022-05-31T16:40:38.769024","PERIOD":"95.593","SITE":"AFETR","NORAD_CAT_ID":"48286","CENTER_NAME":"EARTH","ELEMENT_SET_NO":"999","INCLINATION":"53.0537","REF_FRAME":"TEME","RA_OF_ASC_NODE":"147.6913","APOAPSIS":"548.431","TLE_LINE2":"2 48286  53.0537 147.6913 0001716  50.7979 309.3162 15.06390600 61197","ARG_OF_PERICENTER":"50.7979","SEMIMAJOR_AXIS":"6925.377","MEAN_MOTION_DDOT":"0.0000000000000"},{"CLASSIFICATION_TYPE":"U","GP_ID":"205033437","TLE_LINE1":"1 48287U 21036M   22151.69121378 -.00000716  00000-0 -29196-4 0  9996","LAUNCH_DATE":"2021-04-29","COUNTRY_CODE":"US","TIME_SYSTEM":"UTC","MEAN_MOTION_DOT":"-0.00000716","REV_AT_EPOCH":"6119","MEAN_ANOMALY":"315.7415","MEAN_MOTION":"15.06386275","MEAN_ELEMENT_THEORY":"SGP4","DECAY_DATE":null,"OBJECT_NAME":"STARLINK-2566","OBJECT_TYPE":"PAYLOAD","EPHEMERIS_TYPE":"0","OBJECT_ID":"2021-036M","APOAPSIS":"548.583","RA_OF_ASC_NODE":"147.6934","ARG_OF_PERICENTER":"44.3727","TLE_LINE2":"2 48287  53.0550 147.6934 0001916  44.3727 315.7415 15.06386275 61193","MEAN_MOTION_DDOT":"0.0000000000000","SEMIMAJOR_AXIS":"6925.391","CENTER_NAME":"EARTH","ELEMENT_SET_NO":"999","INCLINATION":"53.0550","REF_FRAME":"TEME","RCS_SIZE":"LARGE","PERIOD":"95.593","EPOCH":"2022-05-31T16:35:20.870592","SITE":"AFETR","NORAD_CAT_ID":"48287","ECCENTRICITY":"0.00019160","BSTAR":"-0.00002919600000","FILE":"3474199","PERIAPSIS":"545.929"}];
